OBJECT_NAME,OBJECT_ID,EPOCH,MEAN_MOTION,ECCENTRICITY,INCLINATION,RA_OF_ASC_NODE,ARG_OF_PERICENTER,MEAN_ANOMALY,EPHEMERIS_TYPE,CLASSIFICATION_TYPE,NORAD_CAT_ID,ELEMENT_SET_NO,REV_AT_EPOCH,BSTAR,MEAN_MOTION_DOT,MEAN_MOTION_DDOT
ONEWEB-0667,2023-029AH,2026-07-01T06:28:40.852992,13.20772696,.00018406,87.9201,271.6253,101.8240,258.3100,0,U,55827,999,16300,.24768391E-3,.114E-5,0
ONEWEB-0669,2023-029AJ,2026-07-01T06:21:24.000768,13.20772669,.00019488,87.9194,271.6361,83.8266,276.3089,0,U,55828,999,16300,.20202987E-3,.95E-6,0
ONEWEB-0670,2023-029AK,2026-07-01T07:03:27.987552,13.14501131,.00015484,87.8964,286.9286,98.4814,261.6491,0,U,55829,999,16128,.41256326E-3,.166E-5,0
ONEWEB-0671,2023-029AL,2026-07-01T05:47:23.580960,13.19724789,.00017688,87.9183,302.1763,103.3310,256.8020,0,U,55830,999,16075,.45225959E-4,.31E-6,0
ONEWEB-0672,2023-029AM,2026-07-01T06:14:06.775296,13.20773147,.00022125,87.9196,271.6309,94.8856,265.2530,0,U,55831,999,16300,.31519654E-3,.141E-5,0
ONEWEB-0673,2023-029AN,2026-07-01T07:03:34.420896,13.19723935,.00017803,87.9190,302.1584,101.2562,258.8771,0,U,55832,999,16076,.19052651E-3,.89E-6,0
ONEWEB-0674,2023-029AP,2026-07-01T06:17:46.703904,13.14502839,.00015871,87.8960,286.9118,96.0650,264.0660,0,U,55833,999,16126,-.63402778E-3,-.222E-5,0
ONEWEB-0675,2023-029AQ,2026-07-01T14:41:53.608992,13.19733982,.00023318,87.9181,302.1034,101.6210,258.5185,0,U,55834,999,16082,.23340029E-2,.948E-5,0
ONEWEB-0720,2023-029AR,2026-07-01T07:13:49.783296,13.19725047,.00018603,87.9180,302.1657,109.6378,250.4955,0,U,55835,999,16070,.11178567E-3,.58E-6,0
ONEWEB-0537,2023-043A,2026-07-01T09:44:40.891776,13.16593842,.00022465,87.9085,225.9477,93.2330,266.9058,0,U,56046,999,16083,-.35783814E-3,-.124E-5,0
ONEWEB-0538,2023-043B,2026-07-01T09:35:33.387936,13.16594344,.0002252,87.9089,225.9515,100.2829,259.8556,0,U,56047,999,16084,-.31573E-3,-.108E-5,0
ONEWEB-0546,2023-043C,2026-07-01T09:17:18.974688,13.16594226,.00025766,87.9088,225.9541,85.1334,275.0091,0,U,56048,999,16083,-.46430073E-3,-.165E-5,0
ONEWEB-0547,2023-043D,2026-07-01T09:40:49.731168,13.21827149,.00021108,87.9251,241.1459,103.1377,256.9992,0,U,56049,999,16010,.22450512E-3,.106E-5,0
ONEWEB-0548,2023-043E,2026-07-01T11:42:05.299776,13.16593919,.00016983,87.9083,225.9300,85.9405,274.1920,0,U,56050,999,16084,.20349073E-3,.91E-6,0
ONEWEB-0549,2023-043F,2026-07-01T09:32:21.433056,13.21827282,.00023454,87.9243,241.1528,104.4264,255.7131,0,U,56051,999,16010,.19753013E-3,.95E-6,0
ONEWEB-0550,2023-043G,2026-07-01T03:45:59.068224,13.21826905,.0001828,87.9247,241.1982,98.1508,261.9833,0,U,56052,999,16007,.19009E-3,.92E-6,0
ONEWEB-0551,2023-043H,2026-07-01T05:25:11.680896,13.15547296,.00022047,87.9000,256.4296,108.1929,251.9442,0,U,56053,999,15824,-.11836281E-3,-.32E-6,0
ONEWEB-0552,2023-043J,2026-07-01T14:32:42.109152,13.21825686,.00019552,87.9242,241.1144,103.0472,257.0880,0,U,56054,999,16013,.37067687E-4,.28E-6,0
ONEWEB-0553,2023-043K,2026-07-01T09:26:26.096640,13.16594345,.00022592,87.9086,225.9530,86.8356,273.3034,0,U,56055,999,16084,-.32158065E-3,-.11E-5,0
ONEWEB-0554,2023-043L,2026-07-01T09:08:12.301152,13.16593853,.0001635,87.9084,225.9643,84.6093,275.5225,0,U,56056,999,16082,-.88618929E-3,-.326E-5,0
ONEWEB-0555,2023-043M,2026-07-01T11:52:20.581824,13.16593886,.00024243,87.9089,225.9302,83.9088,276.2319,0,U,56057,999,16084,.37274687E-3,.155E-5,0
ONEWEB-0557,2023-043N,2026-07-01T08:33:59.645376,13.16594219,.00019988,87.9087,225.9674,59.1893,300.9434,0,U,56058,999,16082,-.47064957E-3,-.167E-5,0
ONEWEB-0558,2023-043P,2026-07-01T14:23:01.039776,13.21825054,.00023296,87.9244,241.1110,102.3881,257.7514,0,U,56059,999,16014,.10167622E-3,.55E-6,0
ONEWEB-0559,2023-043Q,2026-07-01T14:06:03.034368,13.21826358,.00020827,87.9249,241.1087,103.9783,256.1583,0,U,56060,999,16015,.31145941E-3,.142E-5,0
ONEWEB-0566,2023-043R,2026-07-01T13:56:21.885504,13.21827715,.00021499,87.9247,241.1080,106.6359,253.5011,0,U,56061,999,16013,.23760152E-3,.111E-5,0
ONEWEB-0568,2023-043S,2026-07-01T08:59:06.002592,13.16595058,.00022528,87.9088,225.9538,90.1551,269.9838,0,U,56062,999,16084,-.22112854E-3,-.72E-6,0
ONEWEB-0574,2023-043T,2026-07-01T10:08:42.033408,13.21824883,.0001957,87.9253,241.1436,92.6126,267.5232,0,U,56063,999,16015,.73185908E-4,.43E-6,0
ONEWEB-0575,2023-043U,2026-07-01T08:49:58.096992,13.16595257,.00019665,87.9090,225.9511,83.2719,276.8636,0,U,56064,999,16083,-.141153E-3,-.41E-6,0
ONEWEB-0576,2023-043V,2026-07-01T12:01:28.367328,13.16594754,.00019956,87.9088,225.9332,88.1783,271.9576,0,U,56065,999,16084,.4171482E-5,.14E-6,0
ONEWEB-0577,2023-043W,2026-07-01T14:00:02.552832,13.16594971,.00017088,87.9091,225.9145,75.0339,285.0982,0,U,56066,999,16088,.34855152E-3,.146E-5,0
