ONEWEB-0667             
1 55827U 23029AH  26182.26991728  .00000114  00000+0  24768-3 0  9991
2 55827  87.9201 271.6253 0001840 101.8240 258.3100 13.20772696163003
ONEWEB-0669             
1 55828U 23029AJ  26182.26486112  .00000095  00000+0  20203-3 0  9996
2 55828  87.9194 271.6361 0001948  83.8266 276.3089 13.20772669163007
ONEWEB-0670             
1 55829U 23029AK  26182.29407393  .00000166  00000+0  41256-3 0  9994
2 55829  87.8964 286.9286 0001548  98.4814 261.6491 13.14501131161283
ONEWEB-0671             
1 55830U 23029AL  26182.24124515  .00000031  00000+0  45226-4 0  9996
2 55830  87.9183 302.1763 0001768 103.3310 256.8020 13.19724789160757
ONEWEB-0672             
1 55831U 23029AM  26182.25980064  .00000141  00000+0  31520-3 0  9990
2 55831  87.9196 271.6309 0002212  94.8856 265.2530 13.20773147163007
ONEWEB-0673             
1 55832U 23029AN  26182.29414839  .00000089  00000+0  19053-3 0  9995
2 55832  87.9190 302.1584 0001780 101.2562 258.8771 13.19723935160766
ONEWEB-0674             
1 55833U 23029AP  26182.26234611 -.00000222  00000+0 -63403-3 0  9990
2 55833  87.8960 286.9118 0001587  96.0650 264.0660 13.14502839161262
ONEWEB-0675             
1 55834U 23029AQ  26182.61242603  .00000948  00000+0  23340-2 0  9998
2 55834  87.9181 302.1034 0002331 101.6210 258.5185 13.19733982160821
ONEWEB-0720             
1 55835U 23029AR  26182.30127064  .00000058  00000+0  11179-3 0  9998
2 55835  87.9180 302.1657 0001860 109.6378 250.4955 13.19725047160707
ONEWEB-0537             
1 56046U 23043A   26182.40602884 -.00000124  00000+0 -35784-3 0  9992
2 56046  87.9085 225.9477 0002246  93.2330 266.9058 13.16593842160836
ONEWEB-0538             
1 56047U 23043B   26182.39969199 -.00000108  00000+0 -31573-3 0  9990
2 56047  87.9089 225.9515 0002252 100.2829 259.8556 13.16594344160846
ONEWEB-0546             
1 56048U 23043C   26182.38702517 -.00000165  00000+0 -46430-3 0  9990
2 56048  87.9088 225.9541 0002576  85.1334 275.0091 13.16594226160838
ONEWEB-0547             
1 56049U 23043D   26182.40335337  .00000106  00000+0  22451-3 0  9996
2 56049  87.9251 241.1459 0002110 103.1377 256.9992 13.21827149160108
ONEWEB-0548             
1 56050U 23043E   26182.48756134  .00000091  00000+0  20349-3 0  9995
2 56050  87.9083 225.9300 0001698  85.9405 274.1920 13.16593919160840
ONEWEB-0549             
1 56051U 23043F   26182.39747029  .00000095  00000+0  19753-3 0  9990
2 56051  87.9243 241.1528 0002345 104.4264 255.7131 13.21827282160108
ONEWEB-0550             
1 56052U 23043G   26182.15693366  .00000092  00000+0  19009-3 0  9990
2 56052  87.9247 241.1982 0001828  98.1508 261.9833 13.21826905160077
ONEWEB-0551             
1 56053U 23043H   26182.22582964 -.00000032  00000+0 -11836-3 0  9996
2 56053  87.9000 256.4296 0002204 108.1929 251.9442 13.15547296158247
ONEWEB-0552             
1 56054U 23043J   26182.60604293  .00000028  00000+0  37068-4 0  9998
2 56054  87.9242 241.1144 0001955 103.0472 257.0880 13.21825686160131
ONEWEB-0553             
1 56055U 23043K   26182.39335760 -.00000110  00000+0 -32158-3 0  9993
2 56055  87.9086 225.9530 0002259  86.8356 273.3034 13.16594345160843
ONEWEB-0554             
1 56056U 23043L   26182.38069793 -.00000326  00000+0 -88619-3 0  9995
2 56056  87.9084 225.9643 0001635  84.6093 275.5225 13.16593853160825
ONEWEB-0555             
1 56057U 23043M   26182.49468266  .00000155  00000+0  37275-3 0  9996
2 56057  87.9089 225.9302 0002424  83.9088 276.2319 13.16593886160846
ONEWEB-0557             
1 56058U 23043N   26182.35694034 -.00000167  00000+0 -47065-3 0  9999
2 56058  87.9087 225.9674 0001998  59.1893 300.9434 13.16594219160823
ONEWEB-0558             
1 56059U 23043P   26182.59931759  .00000055  00000+0  10168-3 0  9992
2 56059  87.9244 241.1110 0002329 102.3881 257.7514 13.21825054160144
ONEWEB-0559             
1 56060U 23043Q   26182.58753512  .00000142  00000+0  31146-3 0  9998
2 56060  87.9249 241.1087 0002082 103.9783 256.1583 13.21826358160156
ONEWEB-0566             
1 56061U 23043R   26182.58080886  .00000111  00000+0  23760-3 0  9995
2 56061  87.9247 241.1080 0002149 106.6359 253.5011 13.21827715160134
ONEWEB-0568             
1 56062U 23043S   26182.37437503 -.00000072  00000+0 -22113-3 0  9994
2 56062  87.9088 225.9538 0002252  90.1551 269.9838 13.16595058160844
ONEWEB-0574             
1 56063U 23043T   26182.42270872  .00000043  00000+0  73186-4 0  9998
2 56063  87.9253 241.1436 0001957  92.6126 267.5232 13.21824883160155
ONEWEB-0575             
1 56064U 23043U   26182.36803353 -.00000041  00000+0 -14115-3 0  9994
2 56064  87.9090 225.9511 0001966  83.2719 276.8636 13.16595257160833
ONEWEB-0576             
1 56065U 23043V   26182.50102277  .00000014  00000+0  41715-5 0  9994
2 56065  87.9088 225.9332 0001995  88.1783 271.9576 13.16594754160840
ONEWEB-0577             
1 56066U 23043W   26182.58336288  .00000146  00000+0  34855-3 0  9995
2 56066  87.9091 225.9145 0001708  75.0339 285.0982 13.16594971160883
